[{"OBJECT_NAME":"OBJECT T","OBJECT_ID":"2023-091T","EPOCH":"2026-03-09T23:10:06.810240","MEAN_MOTION":15.18017274,"ECCENTRICITY":0.00130499,"INCLINATION":97.5213,"RA_OF_ASC_NODE":128.2106,"ARG_OF_PERICENTER":96.0756,"MEAN_ANOMALY":264.1965,"EPHEMERIS_TYPE":0,"CLASSIFICATION_TYPE":"U","NORAD_CAT_ID":57183,"ELEMENT_SET_NO":999,"REV_AT_EPOCH":14891,"BSTAR":0.00032998025,"MEAN_MOTION_DOT":6.659e-5,"MEAN_MOTION_DDOT":0},{"OBJECT_NAME":"LEO EXPRESS 1","OBJECT_ID":"2023-174AX","EPOCH":"2026-03-09T18:25:46.135776","MEAN_MOTION":15.32756831,"ECCENTRICITY":0.00787345,"INCLINATION":97.5222,"RA_OF_ASC_NODE":152.4092,"ARG_OF_PERICENTER":115.921,"MEAN_ANOMALY":245.0174,"EPHEMERIS_TYPE":0,"CLASSIFICATION_TYPE":"U","NORAD_CAT_ID":58301,"ELEMENT_SET_NO":999,"REV_AT_EPOCH":12965,"BSTAR":0.00049741019,"MEAN_MOTION_DOT":0.00017303,"MEAN_MOTION_DDOT":0}]
